[{"OBJECT_NAME":"STARLINK-35152","OBJECT_ID":"2025-200L","EPOCH":"2026-03-09T18:26:25.621440","MEAN_MOTION":15.05644948,"ECCENTRICITY":6.85e-5,"INCLINATION":97.6016,"RA_OF_ASC_NODE":139.891,"ARG_OF_PERICENTER":109.8786,"MEAN_ANOMALY":250.2515,"EPHEMERIS_TYPE":0,"CLASSIFICATION_TYPE":"U","NORAD_CAT_ID":65530,"ELEMENT_SET_NO":999,"REV_AT_EPOCH":2914,"BSTAR":0.00012588731,"MEAN_MOTION_DOT":1.756e-5,"MEAN_MOTION_DDOT":0},{"OBJECT_NAME":"ICON","OBJECT_ID":"2019-068A","EPOCH":"2026-03-09T22:35:01.599072","MEAN_MOTION":15.06276737,"ECCENTRICITY":0.00134076,"INCLINATION":26.9847,"RA_OF_ASC_NODE":325.9297,"ARG_OF_PERICENTER":187.0145,"MEAN_ANOMALY":173.0229,"EPHEMERIS_TYPE":0,"CLASSIFICATION_TYPE":"U","NORAD_CAT_ID":44628,"ELEMENT_SET_NO":999,"REV_AT_EPOCH":35105,"BSTAR":0.00030799545,"MEAN_MOTION_DOT":4.879e-5,"MEAN_MOTION_DDOT":0}]
